OBJECT_NAME,OBJECT_ID,EPOCH,MEAN_MOTION,ECCENTRICITY,INCLINATION,RA_OF_ASC_NODE,ARG_OF_PERICENTER,MEAN_ANOMALY,EPHEMERIS_TYPE,CLASSIFICATION_TYPE,NORAD_CAT_ID,ELEMENT_SET_NO,REV_AT_EPOCH,BSTAR,MEAN_MOTION_DOT,MEAN_MOTION_DDOT
SAUDISAT 1C (SO-50),2002-058C,2026-06-16T14:46:48.425664,14.83045885,.0075275,64.5510,130.7531,262.5800,96.6748,0,U,27607,999,26437,.11462E-3,.824E-5,0
SAUDISAT 2,2004-025F,2026-06-16T13:09:18.806976,14.56683601,.0023615,98.5508,167.5135,300.3178,59.5683,0,U,28371,999,16565,.54949E-4,.196E-5,0
SAUDISAT 3,2007-012B,2026-06-16T20:24:58.307040,14.71425499,.0013617,98.1456,118.2511,224.9729,135.0375,0,U,31118,999,2769,.42656E-4,.213E-5,0
PISAT,2016-059B,2026-06-16T20:55:01.894080,14.68983006,.0028357,97.8179,168.3379,203.7910,156.1987,0,U,41784,999,51969,.12619E-3,.696E-5,0
FLYING LAPTOP,2017-042G,2026-06-16T20:27:13.168800,15.01145830,.0019517,97.4683,323.3978,122.5784,237.7328,0,U,42831,999,48640,.28529E-3,.3612E-4,0
SALSAT,2020-068K,2026-06-16T18:04:24.320064,15.29794360,.0008036,97.8846,170.7912,309.8779,50.1753,0,U,46495,999,31529,.22536E-3,.6424E-4,0
